[{"OBJECT_NAME":"STARLINK-30225","OBJECT_ID":"2023-105V","EPOCH":"2026-03-09T22:00:01.999584","MEAN_MOTION":15.08265178,"ECCENTRICITY":8.441e-5,"INCLINATION":43.0005,"RA_OF_ASC_NODE":259.9799,"ARG_OF_PERICENTER":300.4111,"MEAN_ANOMALY":281.6665,"EPHEMERIS_TYPE":0,"CLASSIFICATION_TYPE":"U","NORAD_CAT_ID":57449,"ELEMENT_SET_NO":999,"REV_AT_EPOCH":557,"BSTAR":0.005112868,"MEAN_MOTION_DOT":0.000813,"MEAN_MOTION_DDOT":0},{"OBJECT_NAME":"CZ-6A DEB","OBJECT_ID":"2022-151AFR","EPOCH":"2026-03-09T05:35:50.250336","MEAN_MOTION":14.7956831,"ECCENTRICITY":0.01345943,"INCLINATION":98.6622,"RA_OF_ASC_NODE":165.7254,"ARG_OF_PERICENTER":140.0218,"MEAN_ANOMALY":221.0996,"EPHEMERIS_TYPE":0,"CLASSIFICATION_TYPE":"U","NORAD_CAT_ID":56641,"ELEMENT_SET_NO":999,"REV_AT_EPOCH":15895,"BSTAR":0.00092929705,"MEAN_MOTION_DOT":8.055e-5,"MEAN_MOTION_DDOT":0}]
